CCSDS_OMM_VERS = 2.0
CREATION_DATE  = 
ORIGINATOR     = 

OBJECT_NAME    = STARLINK-36621
OBJECT_ID      = 2026-016A
CENTER_NAME    = EARTH
REF_FRAME      = TEME
TIME_SYSTEM    = UTC
MEAN_ELEMENT_THEORY = SGP/SGP4

EPOCH          = 2026-02-22T03:53:53.679840
MEAN_MOTION    = 15.75216242
ECCENTRICITY   = .0000986
INCLINATION    = 97.2833
RA_OF_ASC_NODE = 112.8018
ARG_OF_PERICENTER = 98.9907
MEAN_ANOMALY   = 261.1469

EPHEMERIS_TYPE = 0
CLASSIFICATION_TYPE = U
NORAD_CAT_ID   = 67561
ELEMENT_SET_NO = 999
REV_AT_EPOCH   = 435
BSTAR          = .78733E-3
MEAN_MOTION_DOT = .119089E-2
MEAN_MOTION_DDOT = 0

CCSDS_OMM_VERS = 2.0
CREATION_DATE  = 
ORIGINATOR     = 

OBJECT_NAME    = STARLINK-36398
OBJECT_ID      = 2026-016B
CENTER_NAME    = EARTH
REF_FRAME      = TEME
TIME_SYSTEM    = UTC
MEAN_ELEMENT_THEORY = SGP/SGP4

EPOCH          = 2026-02-22T02:33:05.254848
MEAN_MOTION    = 15.75286304
ECCENTRICITY   = .0001201
INCLINATION    = 97.2841
RA_OF_ASC_NODE = 112.7219
ARG_OF_PERICENTER = 94.5659
MEAN_ANOMALY   = 265.5743

EPHEMERIS_TYPE = 0
CLASSIFICATION_TYPE = U
NORAD_CAT_ID   = 67562
ELEMENT_SET_NO = 999
REV_AT_EPOCH   = 434
BSTAR          = .2089E-2
MEAN_MOTION_DOT = .324961E-2
MEAN_MOTION_DDOT = 0

CCSDS_OMM_VERS = 2.0
CREATION_DATE  = 
ORIGINATOR     = 

OBJECT_NAME    = STARLINK-36403
OBJECT_ID      = 2026-016C
CENTER_NAME    = EARTH
REF_FRAME      = TEME
TIME_SYSTEM    = UTC
MEAN_ELEMENT_THEORY = SGP/SGP4

EPOCH          = 2026-02-22T06:00:01.999296
MEAN_MOTION    = 15.75282870
ECCENTRICITY   = .0001525
INCLINATION    = 97.2835
RA_OF_ASC_NODE = 112.9900
ARG_OF_PERICENTER = 53.7772
MEAN_ANOMALY   = 308.6435

EPHEMERIS_TYPE = 0
CLASSIFICATION_TYPE = U
NORAD_CAT_ID   = 67563
ELEMENT_SET_NO = 999
REV_AT_EPOCH   = 566
BSTAR          = -.57653E-3
MEAN_MOTION_DOT = -.85612E-3
MEAN_MOTION_DDOT = 0

CCSDS_OMM_VERS = 2.0
CREATION_DATE  = 
ORIGINATOR     = 

OBJECT_NAME    = STARLINK-36593
OBJECT_ID      = 2026-016D
CENTER_NAME    = EARTH
REF_FRAME      = TEME
TIME_SYSTEM    = UTC
MEAN_ELEMENT_THEORY = SGP/SGP4

EPOCH          = 2026-02-22T06:00:01.999296
MEAN_MOTION    = 15.75214709
ECCENTRICITY   = .0001282
INCLINATION    = 97.2839
RA_OF_ASC_NODE = 112.9760
ARG_OF_PERICENTER = 82.4155
MEAN_ANOMALY   = 246.0773

EPHEMERIS_TYPE = 0
CLASSIFICATION_TYPE = U
NORAD_CAT_ID   = 67564
ELEMENT_SET_NO = 999
REV_AT_EPOCH   = 550
BSTAR          = -.94193E-4
MEAN_MOTION_DOT = -.14171E-3
MEAN_MOTION_DDOT = 0

CCSDS_OMM_VERS = 2.0
CREATION_DATE  = 
ORIGINATOR     = 

OBJECT_NAME    = STARLINK-35725
OBJECT_ID      = 2026-016E
CENTER_NAME    = EARTH
REF_FRAME      = TEME
TIME_SYSTEM    = UTC
MEAN_ELEMENT_THEORY = SGP/SGP4

EPOCH          = 2026-02-22T03:36:06.569856
MEAN_MOTION    = 15.75212936
ECCENTRICITY   = .0001607
INCLINATION    = 97.2831
RA_OF_ASC_NODE = 112.8172
ARG_OF_PERICENTER = 58.2291
MEAN_ANOMALY   = 301.9130

EPHEMERIS_TYPE = 0
CLASSIFICATION_TYPE = U
NORAD_CAT_ID   = 67565
ELEMENT_SET_NO = 999
REV_AT_EPOCH   = 435
BSTAR          = .10381E-2
MEAN_MOTION_DOT = .157765E-2
MEAN_MOTION_DDOT = 0

CCSDS_OMM_VERS = 2.0
CREATION_DATE  = 
ORIGINATOR     = 

OBJECT_NAME    = STARLINK-36394
OBJECT_ID      = 2026-016F
CENTER_NAME    = EARTH
REF_FRAME      = TEME
TIME_SYSTEM    = UTC
MEAN_ELEMENT_THEORY = SGP/SGP4

EPOCH          = 2026-02-22T03:38:39.039936
MEAN_MOTION    = 15.75217818
ECCENTRICITY   = .0001858
INCLINATION    = 97.2840
RA_OF_ASC_NODE = 112.8125
ARG_OF_PERICENTER = 74.8203
MEAN_ANOMALY   = 285.3268

EPHEMERIS_TYPE = 0
CLASSIFICATION_TYPE = U
NORAD_CAT_ID   = 67566
ELEMENT_SET_NO = 999
REV_AT_EPOCH   = 435
BSTAR          = .94808E-3
MEAN_MOTION_DOT = .143865E-2
MEAN_MOTION_DDOT = 0

CCSDS_OMM_VERS = 2.0
CREATION_DATE  = 
ORIGINATOR     = 

OBJECT_NAME    = STARLINK-36352
OBJECT_ID      = 2026-016G
CENTER_NAME    = EARTH
REF_FRAME      = TEME
TIME_SYSTEM    = UTC
MEAN_ELEMENT_THEORY = SGP/SGP4

EPOCH          = 2026-02-22T06:00:01.999296
MEAN_MOTION    = 15.75257484
ECCENTRICITY   = .0001072
INCLINATION    = 97.2835
RA_OF_ASC_NODE = 113.0011
ARG_OF_PERICENTER = 48.9580
MEAN_ANOMALY   = 347.5340

EPHEMERIS_TYPE = 0
CLASSIFICATION_TYPE = U
NORAD_CAT_ID   = 67567
ELEMENT_SET_NO = 999
REV_AT_EPOCH   = 556
BSTAR          = -.13086E-2
MEAN_MOTION_DOT = -.191565E-2
MEAN_MOTION_DDOT = 0

CCSDS_OMM_VERS = 2.0
CREATION_DATE  = 
ORIGINATOR     = 

OBJECT_NAME    = STARLINK-36435
OBJECT_ID      = 2026-016H
CENTER_NAME    = EARTH
REF_FRAME      = TEME
TIME_SYSTEM    = UTC
MEAN_ELEMENT_THEORY = SGP/SGP4

EPOCH          = 2026-02-22T02:40:47.012736
MEAN_MOTION    = 15.80941767
ECCENTRICITY   = .0001827
INCLINATION    = 97.2837
RA_OF_ASC_NODE = 112.8677
ARG_OF_PERICENTER = 123.2679
MEAN_ANOMALY   = 236.8764

EPHEMERIS_TYPE = 0
CLASSIFICATION_TYPE = U
NORAD_CAT_ID   = 67568
ELEMENT_SET_NO = 999
REV_AT_EPOCH   = 435
BSTAR          = .18127E-2
MEAN_MOTION_DOT = .364043E-2
MEAN_MOTION_DDOT = 0

CCSDS_OMM_VERS = 2.0
CREATION_DATE  = 
ORIGINATOR     = 

OBJECT_NAME    = STARLINK-36575
OBJECT_ID      = 2026-016J
CENTER_NAME    = EARTH
REF_FRAME      = TEME
TIME_SYSTEM    = UTC
MEAN_ELEMENT_THEORY = SGP/SGP4

EPOCH          = 2026-02-22T01:07:54.067584
MEAN_MOTION    = 15.80800948
ECCENTRICITY   = .0000932
INCLINATION    = 97.2874
RA_OF_ASC_NODE = 112.8052
ARG_OF_PERICENTER = 28.3946
MEAN_ANOMALY   = 331.7372

EPHEMERIS_TYPE = 0
CLASSIFICATION_TYPE = U
NORAD_CAT_ID   = 67569
ELEMENT_SET_NO = 999
REV_AT_EPOCH   = 434
BSTAR          = .89362E-3
MEAN_MOTION_DOT = .174372E-2
MEAN_MOTION_DDOT = 0

CCSDS_OMM_VERS = 2.0
CREATION_DATE  = 
ORIGINATOR     = 

OBJECT_NAME    = STARLINK-36562
OBJECT_ID      = 2026-016K
CENTER_NAME    = EARTH
REF_FRAME      = TEME
TIME_SYSTEM    = UTC
MEAN_ELEMENT_THEORY = SGP/SGP4

EPOCH          = 2026-02-22T06:00:01.999296
MEAN_MOTION    = 15.75218722
ECCENTRICITY   = .0001264
INCLINATION    = 97.2837
RA_OF_ASC_NODE = 113.0094
ARG_OF_PERICENTER = 86.9709
MEAN_ANOMALY   = 319.5132

EPHEMERIS_TYPE = 0
CLASSIFICATION_TYPE = U
NORAD_CAT_ID   = 67570
ELEMENT_SET_NO = 999
REV_AT_EPOCH   = 556
BSTAR          = -.34979E-3
MEAN_MOTION_DOT = -.5205E-3
MEAN_MOTION_DDOT = 0

CCSDS_OMM_VERS = 2.0
CREATION_DATE  = 
ORIGINATOR     = 

OBJECT_NAME    = STARLINK-36578
OBJECT_ID      = 2026-016L
CENTER_NAME    = EARTH
REF_FRAME      = TEME
TIME_SYSTEM    = UTC
MEAN_ELEMENT_THEORY = SGP/SGP4

EPOCH          = 2026-02-22T02:10:13.404288
MEAN_MOTION    = 15.75284405
ECCENTRICITY   = .0001469
INCLINATION    = 97.2837
RA_OF_ASC_NODE = 112.7431
ARG_OF_PERICENTER = 107.6776
MEAN_ANOMALY   = 252.4650

EPHEMERIS_TYPE = 0
CLASSIFICATION_TYPE = U
NORAD_CAT_ID   = 67571
ELEMENT_SET_NO = 999
REV_AT_EPOCH   = 434
BSTAR          = .21275E-2
MEAN_MOTION_DOT = .331177E-2
MEAN_MOTION_DDOT = 0

CCSDS_OMM_VERS = 2.0
CREATION_DATE  = 
ORIGINATOR     = 

OBJECT_NAME    = STARLINK-36350
OBJECT_ID      = 2026-016M
CENTER_NAME    = EARTH
REF_FRAME      = TEME
TIME_SYSTEM    = UTC
MEAN_ELEMENT_THEORY = SGP/SGP4

EPOCH          = 2026-02-22T03:30:31.074336
MEAN_MOTION    = 15.75221772
ECCENTRICITY   = .0001264
INCLINATION    = 97.2841
RA_OF_ASC_NODE = 112.8198
ARG_OF_PERICENTER = 12.0318
MEAN_ANOMALY   = 348.0977

EPHEMERIS_TYPE = 0
CLASSIFICATION_TYPE = U
NORAD_CAT_ID   = 67572
ELEMENT_SET_NO = 999
REV_AT_EPOCH   = 435
BSTAR          = .14124E-2
MEAN_MOTION_DOT = .216251E-2
MEAN_MOTION_DDOT = 0

