STARLINK-36621          
1 67561U 26016A   26053.16242685  .00119089  00000+0  78733-3 0  9998
2 67561  97.2833 112.8018 0000986  98.9907 261.1469 15.75216242  4351
STARLINK-36398          
1 67562U 26016B   26053.10631082  .00324961  00000+0  20890-2 0  9993
2 67562  97.2841 112.7219 0001201  94.5659 265.5743 15.75286304  4348
STARLINK-36403          
1 67563U 26016C   26053.25002314 -.00085612  00000+0 -57653-3 0  9997
2 67563  97.2835 112.9900 0001525  53.7772 308.6435 15.75282870  5660
STARLINK-36593          
1 67564U 26016D   26053.25002314 -.00014171  00000+0 -94193-4 0  9991
2 67564  97.2839 112.9760 0001282  82.4155 246.0773 15.75214709  5502
STARLINK-35725          
1 67565U 26016E   26053.15007604  .00157765  00000+0  10381-2 0  9998
2 67565  97.2831 112.8172 0001607  58.2291 301.9130 15.75212936  4354
STARLINK-36394          
1 67566U 26016F   26053.15184074  .00143865  00000+0  94808-3 0  9999
2 67566  97.2840 112.8125 0001858  74.8203 285.3268 15.75217818  4359
STARLINK-36352          
1 67567U 26016G   26053.25002314 -.00191565  00000+0 -13086-2 0  9997
2 67567  97.2835 113.0011 0001072  48.9580 347.5340 15.75257484  5568
STARLINK-36435          
1 67568U 26016H   26053.11165524  .00364043  00000+0  18127-2 0  9998
2 67568  97.2837 112.8677 0001827 123.2679 236.8764 15.80941767  4356
STARLINK-36575          
1 67569U 26016J   26053.04715356  .00174372  00000+0  89362-3 0  9999
2 67569  97.2874 112.8052 0000932  28.3946 331.7372 15.80800948  4347
STARLINK-36562          
1 67570U 26016K   26053.25002314 -.00052050  00000+0 -34979-3 0  9991
2 67570  97.2837 113.0094 0001264  86.9709 319.5132 15.75218722  5563
STARLINK-36578          
1 67571U 26016L   26053.09043292  .00331177  00000+0  21275-2 0  9996
2 67571  97.2837 112.7431 0001469 107.6776 252.4650 15.75284405  4343
STARLINK-36350          
1 67572U 26016M   26053.14619299  .00216251  00000+0  14124-2 0  9999
2 67572  97.2841 112.8198 0001264  12.0318 348.0977 15.75221772  4357
